[
  {
    "icaoId": "KLBB",
    "receiptTime": "2026-04-21 20:15:00",
    "obsTime": 1713724380,
    "reportTime": "2026-04-21 20:13:00",
    "temp": 27,
    "dewp": 14,
    "wdir": 190,
    "wspd": 21,
    "wgst": 27,
    "visib": "10+",
    "altim": 1016.1,
    "rawOb": "KLBB 212013Z 19021G27KT 10SM FEW060 BKN080 27/14 A3002",
    "clouds": [
      {"cover": "FEW", "base": 6000},
      {"cover": "BKN", "base": 8000}
    ]
  }
]
